[{"OBJECT_NAME":"STARLINK-6249","OBJECT_ID":"2023-065AQ","EPOCH":"2026-03-09T22:00:01.999584","MEAN_MOTION":15.13259741,"ECCENTRICITY":0.00026279,"INCLINATION":43.0007,"RA_OF_ASC_NODE":221.7072,"ARG_OF_PERICENTER":261.9718,"MEAN_ANOMALY":105.155,"EPHEMERIS_TYPE":0,"CLASSIFICATION_TYPE":"U","NORAD_CAT_ID":56541,"ELEMENT_SET_NO":999,"REV_AT_EPOCH":572,"BSTAR":0.0064157351,"MEAN_MOTION_DOT":0.0011783,"MEAN_MOTION_DDOT":0},{"OBJECT_NAME":"TIANYI D","OBJECT_ID":"2025-103D","EPOCH":"2026-03-09T23:34:58.761120","MEAN_MOTION":15.17585696,"ECCENTRICITY":0.00029978,"INCLINATION":97.3899,"RA_OF_ASC_NODE":142.5822,"ARG_OF_PERICENTER":153.0168,"MEAN_ANOMALY":207.1222,"EPHEMERIS_TYPE":0,"CLASSIFICATION_TYPE":"U","NORAD_CAT_ID":64051,"ELEMENT_SET_NO":999,"REV_AT_EPOCH":4495,"BSTAR":0.00030791157,"MEAN_MOTION_DOT":6.122e-5,"MEAN_MOTION_DDOT":0}]
